H1 CPF 01  gfz 2022 10 14 00  7871 terrasarx 
H2 0702601  6201 31698    2022 10 14 00 59 42 2022 10 19 00 00 42   120 1 1  0 0 0
H9
10 0 59868  12942.000000  0    1235822.219   -189472.456  -6780771.509
10 0 59868  13062.000000  0     503057.120   -739854.513  -6836763.565
10 0 59868  13182.000000  0    -247823.089  -1264443.448  -6773533.863
10 0 59868  13302.000000  0   -1003283.760  -1753954.953  -6592167.879
10 0 59868  13422.000000  0   -1749548.060  -2199940.873  -6295784.206
10 0 59868  13542.000000  0   -2472842.776  -2594933.203  -5889486.345
10 0 59868  13662.000000  0   -3159647.303  -2932568.338  -5380284.049
10 0 59868  13782.000000  0   -3796944.920  -3207691.883  -4776984.889
10 0 59868  13902.000000  0   -4372471.624  -3416440.965  -4090052.763
10 0 59868  14022.000000  0   -4874955.970  -3556301.196  -3331436.343
10 0 59868  14142.000000  0   -5294346.402  -3626137.981  -2514369.131
10 0 59868  14262.000000  0   -5622020.225  -3626200.509  -1653142.595
10 0 59868  14382.000000  0   -5850968.175  -3558097.424   -762856.550
10 0 59868  14502.000000  0   -5975950.347  -3424744.764    140848.682
10 0 59868  14622.000000  0   -5993619.028  -3230286.881   1042073.074
10 0 59868  14742.000000  0   -5902604.208  -2979991.963   1924946.240
10 0 59868  14862.000000  0   -5703557.291  -2680123.476   2773916.715
10 0 59868  14982.000000  0   -5399154.552  -2337792.841   3574033.261
10 0 59868  15102.000000  0   -4994059.980  -1960796.563   4311215.751
10 0 59868  15222.000000  0   -4494846.486  -1557440.396   4972506.236
10 0 59868  15342.000000  0   -3909881.375  -1136358.221   5546295.480
10 0 59868  15462.000000  0   -3249179.118   -706328.901   6022524.564
10 0 59868  15582.000000  0   -2524222.309   -276093.435   6392858.053
10 0 59868  15702.000000  0   -1747754.509    145822.346   6650823.684
10 0 59868  15822.000000  0    -933551.844    551274.605   6791918.198
10 0 59868  15942.000000  0     -96177.358    932657.030   6813680.950
10 0 59868  16062.000000  0     749279.094   1283042.584   6715733.841
10 0 59868  16182.000000  0    1587471.802   1596309.336   6499787.625
10 0 59868  16302.000000  0    2403076.848   1867247.638   6169613.391
10 0 59868  16422.000000  0    3181071.809   2091646.998   5730981.367
10 0 59868  16542.000000  0    3907015.017   2266362.125   5191566.147
10 0 59868  16662.000000  0    4567316.936   2389356.649   4560818.042
10 0 59868  16782.000000  0    5149499.999   2459724.743   3849804.337
10 0 59868  16902.000000  0    5642445.025   2477688.743   3071018.737
10 0 59868  17022.000000  0    6036610.849   2444571.424   2238160.087
10 0 59868  17142.000000  0    6324227.140   2362746.278   1365890.878
10 0 59868  17262.000000  0    6499455.207   2235564.484    469573.231
10 0 59868  17382.000000  0    6558510.081   2067261.054   -435009.824
10 0 59868  17502.000000  0    6499739.913   1862842.629  -1331941.918
10 0 59868  17622.000000  0    6323663.290   1627959.482  -2205459.948
10 0 59868  17742.000000  0    6032965.730   1368765.511  -3040238.625
10 0 59868  17862.000000  0    5632449.978   1091768.980  -3821664.784
10 0 59868  17982.000000  0    5128944.971    803678.883  -4536094.542
10 0 59868  18102.000000  0    4531176.099    511251.173  -5171088.474
10 0 59868  18222.000000  0    3849602.583    221138.069  -5715620.949
10 0 59868  18342.000000  0    3096225.408    -60255.822  -6160262.385
10 0 59868  18462.000000  0    2284368.921   -326908.060  -6497332.259
10 0 59868  18582.000000  0    1428442.350   -573301.487  -6721019.563
10 0 59868  18702.000000  0     543685.870   -794533.590  -6827473.874
10 0 59868  18822.000000  0    -354097.963   -986409.976  -6814864.370
10 0 59868  18942.000000  0   -1248819.758  -1145520.919  -6683406.888
10 0 59868  19062.000000  0   -2124384.905  -1269300.517  -6435361.421
10 0 59868  19182.000000  0   -2964976.999  -1356067.253  -6074996.530
10 0 59868  19302.000000  0   -3755337.034  -1405045.666  -5608523.637
10 0 59868  19422.000000  0   -4481039.331  -1416369.371  -5044002.175
10 0 59868  19542.000000  0   -5128757.765  -1391064.336  -4391211.410
10 0 59868  19662.000000  0   -5686516.145  -1331012.903  -3661492.047
10 0 59868  19782.000000  0   -6143919.475  -1238899.070  -2867558.490
10 0 59868  19902.000000  0   -6492359.474  -1118135.574  -2023282.701
10 0 59868  20022.000000  0   -6725188.760   -972774.187  -1143453.863
10 0 59868  20142.000000  0   -6837859.825   -807401.298   -243517.323
10 0 59868  20262.000000  0   -6828022.979   -627019.773    660702.685
10 0 59868  20382.000000  0   -6695580.468   -436921.688   1553288.577
10 0 59868  20502.000000  0   -6442695.795   -242555.301   2418518.762
10 0 59868  20622.000000  0   -6073757.073    -49388.678   3241153.546
10 0 59868  20742.000000  0   -5595295.103    137226.277   4006711.423
10 0 59868  20862.000000  0   -5015858.640    312185.336   4701728.865
10 0 59868  20982.000000  0   -4345851.099    470755.767   5313998.268
10 0 59868  21102.000000  0   -3597334.072    608690.363   5832780.208
10 0 59868  21222.000000  0   -2783801.307    722328.208   6248988.514
10 0 59868  21342.000000  0   -1919928.006    808680.002   6555344.175
10 0 59868  21462.000000  0   -1021300.430    865497.708   6746497.034
10 0 59868  21582.000000  0    -104131.915    891326.165   6819112.308
10 0 59868  21702.000000  0     815029.254    885535.832   6771924.405
10 0 59868  21822.000000  0    1719597.068    848336.781   6605757.538
10 0 59868  21942.000000  0    2593245.864    780773.521   6323512.385
10 0 59868  22062.000000  0    3420204.801    684700.410   5930119.451
10 0 59868  22182.000000  0    4185545.034    562738.204   5432457.980
10 0 59868  22302.000000  0    4875452.817    418212.473   4839241.512
10 0 59868  22422.000000  0    5477485.312    255073.922   4160872.047
10 0 59868  22542.000000  0    5980804.781     77803.932   3409262.269
10 0 59868  22662.000000  0    6376384.332   -108692.911   2597627.631
10 0 59868  22782.000000  0    6657179.164   -299208.386   1740252.073
10 0 59868  22902.000000  0    6818260.411   -488359.796    852233.474
10 0 59868  23022.000000  0    6856908.574   -670723.018    -50788.645
10 0 59868  23142.000000  0    6772662.565   -840968.199   -952917.745
10 0 59868  23262.000000  0    6567321.629   -993994.179  -1838289.249
10 0 59868  23382.000000  0    6244902.262  -1125057.656  -2691357.638
10 0 59868  23502.000000  0    5811550.748  -1229894.170  -3497174.949
10 0 59868  23622.000000  0    5275414.899  -1304827.687  -4241655.175
10 0 59868  23742.000000  0    4646478.640  -1346865.864  -4911819.086
10 0 59868  23862.000000  0    3936364.947  -1353779.634  -5496015.634
10 0 59868  23982.000000  0    3158110.971  -1324166.084  -5984116.737
10 0 59868  24102.000000  0    2325921.593  -1257492.432  -6367681.966
10 0 59868  24222.000000  0    1454907.428  -1154120.057  -6640093.528
10 0 59868  24342.000000  0     560810.735  -1015309.904  -6796659.737
10 0 59868  24462.000000  0    -340275.423   -843209.104  -6834687.316
10 0 59868  24582.000000  0   -1232190.672   -640818.181  -6753522.174
10 0 59868  24702.000000  0   -2098990.562   -411939.877  -6554559.874
10 0 59868  24822.000000  0   -2925225.375   -161109.720  -6241223.092
10 0 59868  24942.000000  0   -3696209.127    106489.867  -5818908.942
10 0 59868  25062.000000  0   -4398279.000    385131.703  -5294906.807
10 0 59868  25182.000000  0   -5019039.257    668660.007  -4678283.141
10 0 59868  25302.000000  0   -5547586.039    950619.130  -3979737.234
10 0 59868  25422.000000  0   -5974709.004   1224393.814  -3211425.478
10 0 59868  25542.000000  0   -6293063.271   1483356.705  -2386756.822
10 0 59868  25662.000000  0   -6497308.302   1721019.748  -1520162.495
10 0 59868  25782.000000  0   -6584210.090   1931186.831   -626843.317
10 0 59868  25902.000000  0   -6552702.129   2108102.999    277502.026
10 0 59868  26022.000000  0   -6403902.304   2246596.062   1176960.117
10 0 59868  26142.000000  0   -6141086.193   2342208.284   2055691.023
10 0 59868  26262.000000  0   -5769616.527   2391313.921   2898216.559
10 0 59868  26382.000000  0   -5296830.714   2391218.867   3689701.137
10 0 59868  26502.000000  0   -4731889.024   2340239.712   4416219.318
10 0 59868  26622.000000  0   -4085588.326   2237761.298   5065002.999
10 0 59868  26742.000000  0   -3370147.622   2084271.516   5624665.092
10 0 59868  26862.000000  0   -2598969.508   1881373.276   6085397.376
10 0 59868  26982.000000  0   -1786381.298   1631772.427   6439138.142
10 0 59868  27102.000000  0    -947363.250   1339241.980   6679706.854
10 0 59868  27222.000000  0     -97270.043   1008564.226   6802904.622
10 0 59868  27342.000000  0     748449.630    645451.817   6806582.405
10 0 59868  27462.000000  0    1574532.662    256449.012   6690675.969
10 0 59868  27582.000000  0    2366175.562   -151185.462   6457207.137
10 0 59868  27702.000000  0    3109299.269   -569613.033   6110252.009
10 0 59868  27822.000000  0    3790801.504   -990564.574   5655874.587
10 0 59868  27942.000000  0    4398791.552  -1405502.469   5102026.324
10 0 59868  28062.000000  0    4922802.667  -1805792.818   4458412.922
10 0 59868  28182.000000  0    5353980.122  -2182883.638   3736330.094
10 0 59868  28302.000000  0    5685240.274  -2528486.603   2948467.997
10 0 59868  28422.000000  0    5911394.475  -2834757.802   2108687.481
10 0 59868  28542.000000  0    6029236.273  -3094472.558   1231774.101
10 0 59868  28662.000000  0    6037590.792  -3301191.238    333172.358
10 0 59868  28782.000000  0    5937321.577  -3449410.118   -571294.367
10 0 59868  28902.000000  0    5731297.406  -3534694.529  -1465711.622
10 0 59868  29022.000000  0    5424316.514  -3553789.203  -2334363.214
10 0 59868  29142.000000  0    5022993.654  -3504704.682  -3162013.470
10 0 59868  29262.000000  0    4535612.438  -3386777.716  -3934178.758
10 0 59868  29382.000000  0    3971946.784  -3200704.430  -4637381.398
99
